{
  "links" : {
    "next" : "https://api.nasa.gov/neo/rest/v1/feed?start_date=1999-02-16&end_date=1999-02-16&detailed=true&api_key=t0TVs3DtDT2H8Oy2Zy8m2eVrNsAVKAexjcZXUckd",
    "prev" : "https://api.nasa.gov/neo/rest/v1/feed?start_date=1999-02-14&end_date=1999-02-14&detailed=true&api_key=t0TVs3DtDT2H8Oy2Zy8m2eVrNsAVKAexjcZXUckd",
    "self" : "https://api.nasa.gov/neo/rest/v1/feed?start_date=1999-02-15&end_date=1999-02-15&detailed=true&api_key=t0TVs3DtDT2H8Oy2Zy8m2eVrNsAVKAexjcZXUckd"
  },
  "element_count" : 5,
  "near_earth_objects" : {
    "1999-02-15" : [ {
      "links" : {
        "self" : "https://api.nasa.gov/neo/rest/v1/neo/3680249?api_key=t0TVs3DtDT2H8Oy2Zy8m2eVrNsAVKAexjcZXUckd"
      },
      "neo_reference_id" : "3680249",
      "name" : "(2014 PB58)",
      "nasa_jpl_url" : "http://ssd.jpl.nasa.gov/sbdb.cgi?sstr=3680249",
      "absolute_magnitude_h" : 20.9,
      "estimated_diameter" : {
        "kilometers" : {
          "estimated_diameter_min" : 0.1756123185,
          "estimated_diameter_max" : 0.3926810818
        },
        "meters" : {
          "estimated_diameter_min" : 175.6123184804,
          "estimated_diameter_max" : 392.6810818086
        },
        "miles" : {
          "estimated_diameter_min" : 0.1091204019,
          "estimated_diameter_max" : 0.2440006365
        },
        "feet" : {
          "estimated_diameter_min" : 576.1559189633,
          "estimated_diameter_max" : 1288.3238004408
        }
      },
      "is_potentially_hazardous_asteroid" : false,
      "close_approach_data" : [ {
        "close_approach_date" : "1999-02-15",
        "epoch_date_close_approach" : 919065600000,
        "relative_velocity" : {
          "kilometers_per_second" : "29.2132548576",
          "kilometers_per_hour" : "105167.7174871832",
          "miles_per_hour" : "65347.1297908556"
        },
        "miss_distance" : {
          "astronomical" : "0.2873247481",
          "lunar" : "111.7693328857",
          "kilometers" : "42983172",
          "miles" : "26708504"
        },
        "orbiting_body" : "Earth"
      } ],
      "orbital_data" : {
        "orbit_id" : "11",
        "orbit_determination_date" : "2017-04-06 08:39:21",
        "orbit_uncertainty" : "4",
        "minimum_orbit_intersection" : ".0941743",
        "jupiter_tisserand_invariant" : "4.692",
        "epoch_osculation" : "2458000.5",
        "eccentricity" : ".3278255658778034",
        "semi_major_axis" : "1.286458639243911",
        "inclination" : "46.41187820668871",
        "ascending_node_longitude" : "130.5423624284205",
        "orbital_period" : "532.9569974102903",
        "perihelion_distance" : ".8647246078553871",
        "perihelion_argument" : "333.0928354657479",
        "aphelion_distance" : "1.708192670632435",
        "perihelion_time" : "2458134.468859688422",
        "mean_anomaly" : "269.5071652643986",
        "mean_motion" : ".6754766364815329",
        "equinox" : "J2000"
      }
    }, {
      "links" : {
        "self" : "https://api.nasa.gov/neo/rest/v1/neo/3735686?api_key=t0TVs3DtDT2H8Oy2Zy8m2eVrNsAVKAexjcZXUckd"
      },
      "neo_reference_id" : "3735686",
      "name" : "(2015 XP54)",
      "nasa_jpl_url" : "http://ssd.jpl.nasa.gov/sbdb.cgi?sstr=3735686",
      "absolute_magnitude_h" : 24.0,
      "estimated_diameter" : {
        "kilometers" : {
          "estimated_diameter_min" : 0.0421264611,
          "estimated_diameter_max" : 0.0941976306
        },
        "meters" : {
          "estimated_diameter_min" : 42.1264610556,
          "estimated_diameter_max" : 94.1976305719
        },
        "miles" : {
          "estimated_diameter_min" : 0.0261761612,
          "estimated_diameter_max" : 0.0585316759
        },
        "feet" : {
          "estimated_diameter_min" : 138.2101784897,
          "estimated_diameter_max" : 309.0473542854
        }
      },
      "is_potentially_hazardous_asteroid" : false,
      "close_approach_data" : [ {
        "close_approach_date" : "1999-02-15",
        "epoch_date_close_approach" : 919065600000,
        "relative_velocity" : {
          "kilometers_per_second" : "23.6160938418",
          "kilometers_per_hour" : "85017.937830633",
          "miles_per_hour" : "52826.8403148175"
        },
        "miss_distance" : {
          "astronomical" : "0.4625574367",
          "lunar" : "179.9348449707",
          "kilometers" : "69197608",
          "miles" : "42997400"
        },
        "orbiting_body" : "Earth"
      } ],
      "orbital_data" : {
        "orbit_id" : "3",
        "orbit_determination_date" : "2017-04-06 08:30:14",
        "orbit_uncertainty" : "7",
        "minimum_orbit_intersection" : ".0636419",
        "jupiter_tisserand_invariant" : "6.664",
        "epoch_osculation" : "2458000.5",
        "eccentricity" : ".3954621390688073",
        "semi_major_axis" : ".8756282050350362",
        "inclination" : "16.88596140072001",
        "ascending_node_longitude" : "71.17551420723113",
        "orbital_period" : "299.2802378015284",
        "perihelion_distance" : ".5293504020429006",
        "perihelion_argument" : "215.0479886159162",
        "aphelion_distance" : "1.221906008027172",
        "perihelion_time" : "2457871.090780243230",
        "mean_anomaly" : "155.6645352017269",
        "mean_motion" : "1.202885972841076",
        "equinox" : "J2000"
      }
    } ]
  }
}